STARLINK-5574           
1 55362U 23013AH  26033.21476596  .00002186  00000+0  17685-3 0  9990
2 55362  43.0029 120.0331 0001137 287.3980  72.6738 15.02533393166527
STARLINK-5627           
1 55364U 23013AK  26033.25657040  .00001750  00000+0  14456-3 0  9990
2 55364  43.0031 132.4930 0001426 268.3688  91.6991 15.02551315166389
STARLINK-5639           
1 55365U 23013AL  26032.75002059  .00000495  00000+0  51710-4 0  9999
2 55365  43.0030 148.5665 0001189 271.4548  88.6158 15.02534388166155
STARLINK-5654           
1 55366U 23013AM  26033.28457838  .00000152  00000+0  26306-4 0  9991
2 55366  43.0025 119.6943 0000905 278.2482  81.8258 15.02536869166539
STARLINK-5635           
1 55367U 23013AN  26033.23475423  .00005171  00000+0  39764-3 0  9994
2 55367  43.0029 120.1730 0001415 257.8669 102.2015 15.02533691166520
STARLINK-5625           
1 55368U 23013AP  26033.20478024  .00000932  00000+0  84091-4 0  9996
2 55368  43.0027 119.9582 0001394 273.1068  86.9615 15.02535347166524
STARLINK-5644           
1 55369U 23013AQ  26032.68243221  .00001271  00000+0  10918-3 0  9990
2 55369  43.0039 148.9191 0001547 273.0170  87.0495 15.02533341166147
STARLINK-5027           
1 55370U 23013AR  26032.68687143  .00001344  00000+0  11460-3 0  9991
2 55370  43.0033 148.9562 0001557 274.7638  85.3027 15.02530623166145
STARLINK-5590           
1 55371U 23013AS  26032.73891629  .00000947  00000+0  85141-4 0  9990
2 55371  43.0002 148.4749 0001169 257.2368 102.8344 15.02538420167072
STARLINK-5568           
1 55372U 23013AT  26033.01149072  .00000762  00000+0  71498-4 0  9996
2 55372  43.0018 147.0879 0001187 271.4223  88.6484 15.02535434166197
STARLINK-5581           
1 55373U 23013AU  26032.36779982  .00001873  00000+0  15365-3 0  9997
2 55373  43.0027 150.8501 0001595 261.1790  98.8871 15.02552380166091
STARLINK-5578           
1 55374U 23013AV  26032.67577996  .00002210  00000+0  17861-3 0  9992
2 55374  43.0036 148.8710 0001010 270.7200  89.3526 15.02543668166142
STARLINK-5588           
1 55375U 23013AW  26032.33339297  .00000444  00000+0  47920-4 0  9993
2 55375  42.9991 150.5979 0000819 276.7812  83.2937 15.02531034166096
STARLINK-5586           
1 55376U 23013AX  26032.63977626  .00000431  00000+0  46992-4 0  9995
2 55376  43.0027 123.4486 0001222 273.8318  86.2385 15.02536278166432
STARLINK-5567           
1 55377U 23013AY  26033.31723962  .00000497  00000+0  51892-4 0  9991
2 55377  43.0031 145.0807 0001405 264.6336  95.4346 15.02536143166245
STARLINK-5572           
1 55378U 23013AZ  26033.33389028  .00000125  00000+0  24311-4 0  9999
2 55378  43.0025 145.2067 0001256 265.1361  94.9337 15.02535080166240
