[{"OBJECT_NAME":"STARLINK-5574","OBJECT_ID":"2023-013AH","EPOCH":"2026-02-02T05:09:15.778944","MEAN_MOTION":15.02533393,"ECCENTRICITY":0.00011379,"INCLINATION":43.0029,"RA_OF_ASC_NODE":120.0331,"ARG_OF_PERICENTER":287.398,"MEAN_ANOMALY":72.6738,"EPHEMERIS_TYPE":0,"CLASSIFICATION_TYPE":"U","NORAD_CAT_ID":55362,"ELEMENT_SET_NO":999,"REV_AT_EPOCH":16652,"BSTAR":0.00017684544,"MEAN_MOTION_DOT":2.186e-5,"MEAN_MOTION_DDOT":0},{"OBJECT_NAME":"STARLINK-5627","OBJECT_ID":"2023-013AK","EPOCH":"2026-02-02T06:09:27.682560","MEAN_MOTION":15.02551315,"ECCENTRICITY":0.00014262,"INCLINATION":43.0031,"RA_OF_ASC_NODE":132.493,"ARG_OF_PERICENTER":268.3688,"MEAN_ANOMALY":91.6991,"EPHEMERIS_TYPE":0,"CLASSIFICATION_TYPE":"U","NORAD_CAT_ID":55364,"ELEMENT_SET_NO":999,"REV_AT_EPOCH":16638,"BSTAR":0.00014455694,"MEAN_MOTION_DOT":1.75e-5,"MEAN_MOTION_DDOT":0},{"OBJECT_NAME":"STARLINK-5639","OBJECT_ID":"2023-013AL","EPOCH":"2026-02-01T18:00:01.778976","MEAN_MOTION":15.02534388,"ECCENTRICITY":0.00011896,"INCLINATION":43.003,"RA_OF_ASC_NODE":148.5665,"ARG_OF_PERICENTER":271.4548,"MEAN_ANOMALY":88.6158,"EPHEMERIS_TYPE":0,"CLASSIFICATION_TYPE":"U","NORAD_CAT_ID":55365,"ELEMENT_SET_NO":999,"REV_AT_EPOCH":16615,"BSTAR":5.1710422e-5,"MEAN_MOTION_DOT":4.95e-6,"MEAN_MOTION_DDOT":0},{"OBJECT_NAME":"STARLINK-5654","OBJECT_ID":"2023-013AM","EPOCH":"2026-02-02T06:49:47.572032","MEAN_MOTION":15.02536869,"ECCENTRICITY":9.057e-5,"INCLINATION":43.0025,"RA_OF_ASC_NODE":119.6943,"ARG_OF_PERICENTER":278.2482,"MEAN_ANOMALY":81.8258,"EPHEMERIS_TYPE":0,"CLASSIFICATION_TYPE":"U","NORAD_CAT_ID":55366,"ELEMENT_SET_NO":999,"REV_AT_EPOCH":16653,"BSTAR":2.6305764e-5,"MEAN_MOTION_DOT":1.52e-6,"MEAN_MOTION_DDOT":0},{"OBJECT_NAME":"STARLINK-5635","OBJECT_ID":"2023-013AN","EPOCH":"2026-02-02T05:38:02.765472","MEAN_MOTION":15.02533691,"ECCENTRICITY":0.00014159,"INCLINATION":43.0029,"RA_OF_ASC_NODE":120.173,"ARG_OF_PERICENTER":257.8669,"MEAN_ANOMALY":102.2015,"EPHEMERIS_TYPE":0,"CLASSIFICATION_TYPE":"U","NORAD_CAT_ID":55367,"ELEMENT_SET_NO":999,"REV_AT_EPOCH":16652,"BSTAR":0.00039763682,"MEAN_MOTION_DOT":5.171e-5,"MEAN_MOTION_DDOT":0},{"OBJECT_NAME":"STARLINK-5625","OBJECT_ID":"2023-013AP","EPOCH":"2026-02-02T04:54:53.012736","MEAN_MOTION":15.02535347,"ECCENTRICITY":0.00013944,"INCLINATION":43.0027,"RA_OF_ASC_NODE":119.9582,"ARG_OF_PERICENTER":273.1068,"MEAN_ANOMALY":86.9615,"EPHEMERIS_TYPE":0,"CLASSIFICATION_TYPE":"U","NORAD_CAT_ID":55368,"ELEMENT_SET_NO":999,"REV_AT_EPOCH":16652,"BSTAR":8.4091437e-5,"MEAN_MOTION_DOT":9.32e-6,"MEAN_MOTION_DDOT":0},{"OBJECT_NAME":"STARLINK-5644","OBJECT_ID":"2023-013AQ","EPOCH":"2026-02-01T16:22:42.142944","MEAN_MOTION":15.02533341,"ECCENTRICITY":0.00015471,"INCLINATION":43.0039,"RA_OF_ASC_NODE":148.9191,"ARG_OF_PERICENTER":273.017,"MEAN_ANOMALY":87.0495,"EPHEMERIS_TYPE":0,"CLASSIFICATION_TYPE":"U","NORAD_CAT_ID":55369,"ELEMENT_SET_NO":999,"REV_AT_EPOCH":16614,"BSTAR":0.00010917806,"MEAN_MOTION_DOT":1.271e-5,"MEAN_MOTION_DDOT":0},{"OBJECT_NAME":"STARLINK-5027","OBJECT_ID":"2023-013AR","EPOCH":"2026-02-01T16:29:05.691552","MEAN_MOTION":15.02530623,"ECCENTRICITY":0.00015578,"INCLINATION":43.0033,"RA_OF_ASC_NODE":148.9562,"ARG_OF_PERICENTER":274.7638,"MEAN_ANOMALY":85.3027,"EPHEMERIS_TYPE":0,"CLASSIFICATION_TYPE":"U","NORAD_CAT_ID":55370,"ELEMENT_SET_NO":999,"REV_AT_EPOCH":16614,"BSTAR":0.00011459626,"MEAN_MOTION_DOT":1.344e-5,"MEAN_MOTION_DDOT":0},{"OBJECT_NAME":"STARLINK-5590","OBJECT_ID":"2023-013AS","EPOCH":"2026-02-01T17:44:02.367456","MEAN_MOTION":15.0253842,"ECCENTRICITY":0.00011693,"INCLINATION":43.0002,"RA_OF_ASC_NODE":148.4749,"ARG_OF_PERICENTER":257.2368,"MEAN_ANOMALY":102.8344,"EPHEMERIS_TYPE":0,"CLASSIFICATION_TYPE":"U","NORAD_CAT_ID":55371,"ELEMENT_SET_NO":999,"REV_AT_EPOCH":16707,"BSTAR":8.5140836e-5,"MEAN_MOTION_DOT":9.47e-6,"MEAN_MOTION_DDOT":0},{"OBJECT_NAME":"STARLINK-5568","OBJECT_ID":"2023-013AT","EPOCH":"2026-02-02T00:16:32.798208","MEAN_MOTION":15.02535434,"ECCENTRICITY":0.00011877,"INCLINATION":43.0018,"RA_OF_ASC_NODE":147.0879,"ARG_OF_PERICENTER":271.4223,"MEAN_ANOMALY":88.6484,"EPHEMERIS_TYPE":0,"CLASSIFICATION_TYPE":"U","NORAD_CAT_ID":55372,"ELEMENT_SET_NO":999,"REV_AT_EPOCH":16619,"BSTAR":7.1497913e-5,"MEAN_MOTION_DOT":7.62e-6,"MEAN_MOTION_DDOT":0},{"OBJECT_NAME":"STARLINK-5581","OBJECT_ID":"2023-013AU","EPOCH":"2026-02-01T08:49:37.904448","MEAN_MOTION":15.0255238,"ECCENTRICITY":0.00015959,"INCLINATION":43.0027,"RA_OF_ASC_NODE":150.8501,"ARG_OF_PERICENTER":261.179,"MEAN_ANOMALY":98.8871,"EPHEMERIS_TYPE":0,"CLASSIFICATION_TYPE":"U","NORAD_CAT_ID":55373,"ELEMENT_SET_NO":999,"REV_AT_EPOCH":16609,"BSTAR":0.00015364532,"MEAN_MOTION_DOT":1.873e-5,"MEAN_MOTION_DDOT":0},{"OBJECT_NAME":"STARLINK-5578","OBJECT_ID":"2023-013AV","EPOCH":"2026-02-01T16:13:07.388544","MEAN_MOTION":15.02543668,"ECCENTRICITY":0.00010103,"INCLINATION":43.0036,"RA_OF_ASC_NODE":148.871,"ARG_OF_PERICENTER":270.72,"MEAN_ANOMALY":89.3526,"EPHEMERIS_TYPE":0,"CLASSIFICATION_TYPE":"U","NORAD_CAT_ID":55374,"ELEMENT_SET_NO":999,"REV_AT_EPOCH":16614,"BSTAR":0.00017860816,"MEAN_MOTION_DOT":2.21e-5,"MEAN_MOTION_DDOT":0},{"OBJECT_NAME":"STARLINK-5588","OBJECT_ID":"2023-013AW","EPOCH":"2026-02-01T08:00:05.152608","MEAN_MOTION":15.02531034,"ECCENTRICITY":8.192e-5,"INCLINATION":42.9991,"RA_OF_ASC_NODE":150.5979,"ARG_OF_PERICENTER":276.7812,"MEAN_ANOMALY":83.2937,"EPHEMERIS_TYPE":0,"CLASSIFICATION_TYPE":"U","NORAD_CAT_ID":55375,"ELEMENT_SET_NO":999,"REV_AT_EPOCH":16609,"BSTAR":4.7920067e-5,"MEAN_MOTION_DOT":4.44e-6,"MEAN_MOTION_DDOT":0},{"OBJECT_NAME":"STARLINK-5586","OBJECT_ID":"2023-013AX","EPOCH":"2026-02-01T15:21:16.668864","MEAN_MOTION":15.02536278,"ECCENTRICITY":0.00012226,"INCLINATION":43.0027,"RA_OF_ASC_NODE":123.4486,"ARG_OF_PERICENTER":273.8318,"MEAN_ANOMALY":86.2385,"EPHEMERIS_TYPE":0,"CLASSIFICATION_TYPE":"U","NORAD_CAT_ID":55376,"ELEMENT_SET_NO":999,"REV_AT_EPOCH":16643,"BSTAR":4.6992411e-5,"MEAN_MOTION_DOT":4.31e-6,"MEAN_MOTION_DDOT":0},{"OBJECT_NAME":"STARLINK-5567","OBJECT_ID":"2023-013AY","EPOCH":"2026-02-02T07:36:49.503168","MEAN_MOTION":15.02536143,"ECCENTRICITY":0.00014056,"INCLINATION":43.0031,"RA_OF_ASC_NODE":145.0807,"ARG_OF_PERICENTER":264.6336,"MEAN_ANOMALY":95.4346,"EPHEMERIS_TYPE":0,"CLASSIFICATION_TYPE":"U","NORAD_CAT_ID":55377,"ELEMENT_SET_NO":999,"REV_AT_EPOCH":16624,"BSTAR":5.1891857e-5,"MEAN_MOTION_DOT":4.97e-6,"MEAN_MOTION_DDOT":0},{"OBJECT_NAME":"STARLINK-5572","OBJECT_ID":"2023-013AZ","EPOCH":"2026-02-02T08:00:48.120192","MEAN_MOTION":15.0253508,"ECCENTRICITY":0.00012562,"INCLINATION":43.0025,"RA_OF_ASC_NODE":145.2067,"ARG_OF_PERICENTER":265.1361,"MEAN_ANOMALY":94.9337,"EPHEMERIS_TYPE":0,"CLASSIFICATION_TYPE":"U","NORAD_CAT_ID":55378,"ELEMENT_SET_NO":999,"REV_AT_EPOCH":16624,"BSTAR":2.4310649e-5,"MEAN_MOTION_DOT":1.25e-6,"MEAN_MOTION_DDOT":0}]
